{
  "type": "FeatureCollection",
  "features": [
    {
      "type": "Feature",
      "properties": {
        "norad_id": 55973,
        "name": "TIANMU-1 03",
        "group": "weather",
        "lat": 53.24293111920009,
        "lon": 128.56661899398347,
        "alt_km": 437.35024119338686,
        "timestamp": "2025-12-02T08:59:32.362547+00:00",
        "meta_object_name": "TIANMU-1 03",
        "meta_object_id": "2023-039A",
        "meta_epoch": "2025-12-02T04:04:55.915968",
        "meta_mean_motion": 15.40447037,
        "meta_eccentricity": 0.0004525,
        "meta_inclination": 97.5103,
        "meta_ra_of_asc_node": 138.53,
        "meta_arg_of_pericenter": 91.6272,
        "meta_mean_anomaly": 268.5492,
        "meta_ephemeris_type": 0,
        "meta_classification_type": "U",
        "meta_norad_cat_id": 55973,
        "meta_element_set_no": 999,
        "meta_rev_at_epoch": 15043,
        "meta_bstar": 0.00045274,
        "meta_mean_motion_dot": 0.00018271,
        "meta_mean_motion_ddot": 0,
        "tle_line1": "1 55973U 23039A   25336.17009162  .00018271  00000+0  45274-3 0  9994",
        "tle_line2": "2 55973  97.5103 138.5300 0004525  91.6272 268.5492 15.40447037150433"
      },
      "geometry": {
        "type": "Point",
        "coordinates": [
          128.56661899398347,
          53.24293111920009
        ]
      }
    },
    {
      "type": "Feature",
      "properties": {
        "norad_id": 55974,
        "name": "TIANMU-1 04",
        "group": "weather",
        "lat": 24.03866931081566,
        "lon": -38.69405964783805,
        "alt_km": 442.0213556825438,
        "timestamp": "2025-12-02T08:59:32.362558+00:00",
        "meta_object_name": "TIANMU-1 04",
        "meta_object_id": "2023-039B",
        "meta_epoch": "2025-12-02T05:12:07.966368",
        "meta_mean_motion": 15.40777706,
        "meta_eccentricity": 0.0005251,
        "meta_inclination": 97.5035,
        "meta_ra_of_asc_node": 137.7734,
        "meta_arg_of_pericenter": 87.5614,
        "meta_mean_anomaly": 272.6233,
        "meta_ephemeris_type": 0,
        "meta_classification_type": "U",
        "meta_norad_cat_id": 55974,
        "meta_element_set_no": 999,
        "meta_rev_at_epoch": 15044,
        "meta_bstar": 0.0004837,
        "meta_mean_motion_dot": 0.00019747,
        "meta_mean_motion_ddot": 0,
        "tle_line1": "1 55974U 23039B   25336.21675887  .00019747  00000+0  48370-3 0  9992",
        "tle_line2": "2 55974  97.5035 137.7734 0005251  87.5614 272.6233 15.40777706150440"
      },
      "geometry": {
        "type": "Point",
        "coordinates": [
          -38.69405964783805,
          24.03866931081566
        ]
      }
    },
    {
      "type": "Feature",
      "properties": {
        "norad_id": 55975,
        "name": "TIANMU-1 05",
        "group": "weather",
        "lat": -21.41068016296931,
        "lon": -44.53712033688376,
        "alt_km": 450.5040643819202,
        "timestamp": "2025-12-02T08:59:32.362568+00:00",
        "meta_object_name": "TIANMU-1 05",
        "meta_object_id": "2023-039C",
        "meta_epoch": "2025-12-02T05:00:09.508032",
        "meta_mean_motion": 15.40406852,
        "meta_eccentricity": 0.0004324,
        "meta_inclination": 97.508,
        "meta_ra_of_asc_node": 138.2566,
        "meta_arg_of_pericenter": 108.2037,
        "meta_mean_anomaly": 251.968,
        "meta_ephemeris_type": 0,
        "meta_classification_type": "U",
        "meta_norad_cat_id": 55975,
        "meta_element_set_no": 999,
        "meta_rev_at_epoch": 15042,
        "meta_bstar": 0.00047182,
        "meta_mean_motion_dot": 0.0001902,
        "meta_mean_motion_ddot": 0,
        "tle_line1": "1 55975U 23039C   25336.20844338  .00019020  00000+0  47182-3 0  9995",
        "tle_line2": "2 55975  97.5080 138.2566 0004324 108.2037 251.9680 15.40406852150425"
      },
      "geometry": {
        "type": "Point",
        "coordinates": [
          -44.53712033688376,
          -21.41068016296931
        ]
      }
    },
    {
      "type": "Feature",
      "properties": {
        "norad_id": 55976,
        "name": "TIANMU-1 06",
        "group": "weather",
        "lat": 37.93192393236754,
        "lon": -35.21523218173432,
        "alt_km": 438.4488370635072,
        "timestamp": "2025-12-02T08:59:32.362579+00:00",
        "meta_object_name": "TIANMU-1 06",
        "meta_object_id": "2023-039D",
        "meta_epoch": "2025-12-02T03:42:15.806304",
        "meta_mean_motion": 15.40828052,
        "meta_eccentricity": 0.0004659,
        "meta_inclination": 97.5092,
        "meta_ra_of_asc_node": 138.6576,
        "meta_arg_of_pericenter": 103.8992,
        "meta_mean_anomaly": 256.2772,
        "meta_ephemeris_type": 0,
        "meta_classification_type": "U",
        "meta_norad_cat_id": 55976,
        "meta_element_set_no": 999,
        "meta_rev_at_epoch": 15043,
        "meta_bstar": 0.00047113,
        "meta_mean_motion_dot": 0.0001926,
        "meta_mean_motion_ddot": 0,
        "tle_line1": "1 55976U 23039D   25336.15434961  .00019260  00000+0  47113-3 0  9997",
        "tle_line2": "2 55976  97.5092 138.6576 0004659 103.8992 256.2772 15.40828052150437"
      },
      "geometry": {
        "type": "Point",
        "coordinates": [
          -35.21523218173432,
          37.93192393236754
        ]
      }
    },
    {
      "type": "Feature",
      "properties": {
        "norad_id": 56232,
        "name": "FENGYUN 3G",
        "group": "weather",
        "lat": 34.32431451494688,
        "lon": -44.10593388608745,
        "alt_km": 400.2246041291901,
        "timestamp": "2025-12-02T08:59:32.362589+00:00",
        "meta_object_name": "FENGYUN 3G",
        "meta_object_id": "2023-055A",
        "meta_epoch": "2025-12-02T04:09:19.912032",
        "meta_mean_motion": 15.52680373,
        "meta_eccentricity": 0.0009233,
        "meta_inclination": 49.9948,
        "meta_ra_of_asc_node": 281.9431,
        "meta_arg_of_pericenter": 97.5762,
        "meta_mean_anomaly": 262.6254,
        "meta_ephemeris_type": 0,
        "meta_classification_type": "U",
        "meta_norad_cat_id": 56232,
        "meta_element_set_no": 999,
        "meta_rev_at_epoch": 14938,
        "meta_bstar": 0.000607,
        "meta_mean_motion_dot": 0.00037954,
        "meta_mean_motion_ddot": 0,
        "tle_line1": "1 56232U 23055A   25336.17314713  .00037954  00000+0  60700-3 0  9992",
        "tle_line2": "2 56232  49.9948 281.9431 0009233  97.5762 262.6254 15.52680373149386"
      },
      "geometry": {
        "type": "Point",
        "coordinates": [
          -44.10593388608745,
          34.32431451494688
        ]
      }
    },
    {
      "type": "Feature",
      "properties": {
        "norad_id": 57166,
        "name": "METEOR-M2 3",
        "group": "weather",
        "lat": 59.818142587376634,
        "lon": 14.940491441109886,
        "alt_km": 803.0293654559882,
        "timestamp": "2025-12-02T08:59:32.362599+00:00",
        "meta_object_name": "METEOR-M2 3",
        "meta_object_id": "2023-091A",
        "meta_epoch": "2025-12-02T05:20:04.684416",
        "meta_mean_motion": 14.24023955,
        "meta_eccentricity": 0.000446,
        "meta_inclination": 98.6393,
        "meta_ra_of_asc_node": 29.9446,
        "meta_arg_of_pericenter": 36.8876,
        "meta_mean_anomaly": 323.2609,
        "meta_ephemeris_type": 0,
        "meta_classification_type": "U",
        "meta_norad_cat_id": 57166,
        "meta_element_set_no": 999,
        "meta_rev_at_epoch": 12648,
        "meta_bstar": 3.2462e-05,
        "meta_mean_motion_dot": 3.1e-07,
        "meta_mean_motion_ddot": 0,
        "tle_line1": "1 57166U 23091A   25336.22227644  .00000031  00000+0  32462-4 0  9992",
        "tle_line2": "2 57166  98.6393  29.9446 0004460  36.8876 323.2609 14.24023955126482"
      },
      "geometry": {
        "type": "Point",
        "coordinates": [
          14.940491441109886,
          59.818142587376634
        ]
      }
    },
    {
      "type": "Feature",
      "properties": {
        "norad_id": 57399,
        "name": "TIANMU-1 07",
        "group": "weather",
        "lat": -23.339061831850405,
        "lon": 29.621095431758707,
        "alt_km": 490.35739249440667,
        "timestamp": "2025-12-02T08:59:32.362609+00:00",
        "meta_object_name": "TIANMU-1 07",
        "meta_object_id": "2023-101A",
        "meta_epoch": "2025-12-01T20:31:12.719712",
        "meta_mean_motion": 15.27822096,
        "meta_eccentricity": 0.0005553,
        "meta_inclination": 97.29,
        "meta_ra_of_asc_node": 25.9465,
        "meta_arg_of_pericenter": 109.2705,
        "meta_mean_anomaly": 250.9136,
        "meta_ephemeris_type": 0,
        "meta_classification_type": "U",
        "meta_norad_cat_id": 57399,
        "meta_element_set_no": 999,
        "meta_rev_at_epoch": 13149,
        "meta_bstar": 0.00029009,
        "meta_mean_motion_dot": 7.813e-05,
        "meta_mean_motion_ddot": 0,
        "tle_line1": "1 57399U 23101A   25335.85500833  .00007813  00000+0  29009-3 0  9991",
        "tle_line2": "2 57399  97.2900  25.9465 0005553 109.2705 250.9136 15.27822096131491"
      },
      "geometry": {
        "type": "Point",
        "coordinates": [
          29.621095431758707,
          -23.339061831850405
        ]
      }
    }
  ]
}